MALLIGYONG-1            
1 58400U 23179A   23337.45549414  .00007808  00000+0  35069-3 0  9991
2 58400  97.4262 222.0770 0014329 233.9443 126.0465 15.21342103  1801
